MEAN_MOTION;ECCENTRICITY;INCLINATION;RA_OF_ASC_NODE;ARG_OF_PERICENTER;MEAN_ANOMALY;BSTAR;MEAN_MOTION_DOT;MEAN_MOTION_DDOT;TYPE
1.00273649;0.000118;0.0144;201.31;131.9294;298.2035;0;-2.89E-6;0;Weather
1.00273195;0.0001197;0.0187;191.5211;144.94;292.5137;0;-2.93E-6;0;Weather
1.0027281;0.0001225;0.0049;161.5029;179.292;161.4253;0;-2.95E-6;0;Weather
1.00272679;0.0001191;0.0192;184.1358;159.0292;277.741;0;-2.97E-6;0;Weather
1.00272357;0.0001209;0.0144;171.9892;176.9473;157.1871;0;-2.98E-6;0;Weather
1.00272385;0.0001197;0.0048;156.0463;190.6836;173.6823;0;-2.99E-6;0;Weather
1.00272252;0.0001183;0.016;176.7127;172.1615;300.9004;0;-2.99E-6;0;Weather
1.00272027;0.0001193;0.0025;173.3694;179.8161;130.9315;0;-3.0E-6;0;Weather
1.00272023;0.0001192;0.0025;174.3843;177.9198;167.8923;0;-3.01E-6;0;Weather
1.00271998;0.0001195;0.015;176.9287;177.6936;210.647;0;-3.0E-6;0;Weather
1.00271625;0.0001175;0.0156;170.8247;188.7643;254.0753;0;-3.01E-6;0;Weather
1.00271605;0.0001171;0.0153;170.2811;189.6578;276.9753;0;-3.02E-6;0;Weather
1.00271351;0.000117;0.0156;164.6337;200.8477;251.6073;0;-3.01E-6;0;Weather
1.00271331;0.0001167;0.0146;163.572;202.2636;277.17;0;-3.01E-6;0;Weather
1.0027111;0.000117;0.0144;159.2719;212.1776;248.4407;0;-3.0E-6;0;Weather
1.00271091;0.0001167;0.0134;158.8372;212.9148;274.0551;0;-3.01E-6;0;Weather
1.0027088;0.0001169;0.0109;146.7658;230.4846;271.3703;0;-2.99E-6;0;Weather
1.00270782;0.0001178;0.0125;142.5477;238.5242;114.6631;0;-2.99E-6;0;Weather
1.00270693;0.0001176;0.0135;140.1215;242.7361;251.9225;0;-2.98E-6;0;Weather
1.00270585;0.0001179;0.0152;135.7572;250.523;112.4483;0;-2.98E-6;0;Weather
1.00270491;0.0001178;0.0167;134.3009;253.5897;252.0667;0;-2.97E-6;0;Weather
1.00270711;0.0001228;0.0135;198.7438;190.1321;112.6548;0;-2.97E-6;0;Weather
1.00270474;0.0001243;0.0135;194.274;196.7018;255.5066;0;-2.97E-6;0;Weather
1.00270304;0.0001234;0.014;189.7777;203.1388;111.3927;0;-2.96E-6;0;Weather
1.0027027;0.0001235;0.0138;190.472;203.0496;140.2513;0;-2.96E-6;0;Weather
1.00270197;0.0001234;0.0127;185.6022;208.8341;257.3668;0;-2.96E-6;0;Weather
1.00270023;0.0001221;0.0113;179.539;216.755;136.7293;0;-2.96E-6;0;Weather
1.00269971;0.000122;0.0082;163.9192;232.848;195.485;0;-2.95E-6;0;Weather
1.00269914;0.0001222;0.0079;162.573;234.5201;260.3563;0;-2.95E-6;0;Weather
1.00269818;0.0001223;0.0087;212.2191;185.3411;13.5859;0;-2.95E-6;0;Weather
1.00269811;0.0001049;0.0114;199.7882;189.9242;146.08;0;-2.95E-6;0;Weather
1.00272977;8.7E-5;0.0125;197.593;181.5526;259.1854;0;-2.94E-6;0;Weather
1.00274817;9.67E-5;0.0139;186.6927;181.5395;274.0324;0;-2.92E-6;0;Weather
1.00274593;9.58E-5;0.0145;181.3368;187.6702;146.4855;0;-2.91E-6;0;Weather
1.00274455;9.44E-5;0.0141;179.4803;188.9932;279.2334;0;-2.91E-6;0;Weather
1.00274052;9.12E-5;0.0123;171.4348;198.1678;244.072;0;-2.89E-6;0;Weather
1.00274003;9.09E-5;0.0113;170.4993;199.2788;287.0882;0;-2.89E-6;0;Weather
1.00273745;9.03E-5;0.0096;157.902;211.1576;161.7637;0;-2.87E-6;0;Weather
1.00273622;8.94E-5;0.0102;156.1127;212.4581;269.2936;0;-2.86E-6;0;Weather
1.00273249;8.87E-5;0.0127;150.1227;217.4989;234.0641;0;-2.84E-6;0;Weather
1.00273187;8.85E-5;0.0128;149.7439;217.6668;286.0944;0;-2.84E-6;0;Weather
1.00272818;8.87E-5;0.0158;144.0378;222.3655;238.0752;0;-2.82E-6;0;Weather
1.00272752;8.85E-5;0.016;143.4538;222.758;290.1011;0;-2.82E-6;0;Weather
1.00272461;8.9E-5;0.0185;138.1392;227.6009;166.6631;0;-2.8E-6;0;Weather
1.00272336;8.94E-5;0.0193;137.12;228.2045;267.8803;0;-2.8E-6;0;Weather
1.00272301;8.94E-5;0.0195;136.4901;228.7342;293.9043;0;-2.8E-6;0;Weather
1.00272003;8.98E-5;0.0219;130.7928;233.9504;165.3873;0;-2.79E-6;0;Weather
1.00271867;9.08E-5;0.0227;129.8442;234.3807;271.7736;0;-2.78E-6;0;Weather
1.00271832;9.09E-5;0.0229;129.102;234.9889;297.8246;0;-2.78E-6;0;Weather
1.00271383;9.25E-5;0.0263;123.3398;240.6875;274.7687;0;-2.78E-6;0;Weather
1.0027135;9.26E-5;0.0266;122.6192;241.3408;299.1618;0;-2.78E-6;0;Weather
1.0027089;9.48E-5;0.0298;117.3888;246.5614;277.6421;0;-2.78E-6;0;Weather
1.00270937;0.0001067;0.0099;224.2417;141.9877;148.6169;0;-2.79E-6;0;Weather
1.00271052;0.0001065;0.0104;218.5312;148.1751;307.2302;0;-2.8E-6;0;Weather
1.00270738;0.0001072;0.0108;211.017;155.5346;151.0859;0;-2.81E-6;0;Weather
1.00270548;0.0001098;0.011;205.7525;161.6741;279.7907;0;-2.82E-6;0;Weather
1.0027009;0.0001126;0.0104;192.2737;176.9558;254.5765;0;-2.85E-6;0;Weather
1.00272739;8.23E-5;0.0089;179.7961;168.4878;174.9571;0;-2.87E-6;0;Weather
1.00273351;8.21E-5;0.0096;173.9465;173.7368;331.0309;0;-2.89E-6;0;Weather
1.00273086;8.46E-5;0.0106;163.7386;184.3701;177.9441;0;-2.9E-6;0;Weather
1.00272942;8.36E-5;0.0128;162.2076;189.323;322.0662;0;-2.92E-6;0;Weather
1.00272663;8.39E-5;0.0151;154.5254;200.6863;173.6354;0;-2.93E-6;0;Weather
1.00272528;8.25E-5;0.0164;151.5643;205.9211;300.9161;0;-2.94E-6;0;Weather
1.00272204;8.19E-5;0.0194;143.6501;220.2267;167.7548;0;-2.96E-6;0;Weather
1.00272075;8.08E-5;0.0204;140.818;226.4505;296.1018;0;-2.96E-6;0;Weather
1.00271845;8.22E-5;0.0236;133.8684;238.271;162.3125;0;-2.97E-6;0;Weather
1.00271728;8.12E-5;0.0249;131.7765;243.421;288.8397;0;-2.97E-6;0;Weather
1.00271407;8.24E-5;0.0296;122.856;260.8734;290.6726;0;-2.97E-6;0;Weather
1.00271168;8.47E-5;0.0342;113.9591;276.4557;241.2128;0;-2.96E-6;0;Weather
1.00271074;8.53E-5;0.0359;110.7323;282.2442;20.2898;0;-2.96E-6;0;Weather
1.00270908;8.73E-5;0.0381;106.0651;292.3279;263.6941;0;-2.95E-6;0;Weather
1.00270844;8.83E-5;0.039;104.6851;296.094;15.2906;0;-2.95E-6;0;Weather
1.00270684;9.06E-5;0.0409;101.3615;304.4336;269.4381;0;-2.94E-6;0;Weather
1.00270633;9.15E-5;0.0414;101.6869;305.8736;11.3077;0;-2.93E-6;0;Weather
1.00270483;9.35E-5;0.0426;100.5378;311.1537;257.9305;0;-2.93E-6;0;Weather
1.00270374;9.58E-5;0.0438;98.2459;317.4944;109.5921;0;-2.92E-6;0;Weather
1.00270287;9.63E-5;0.0444;97.2037;320.1267;237.5618;0;-2.92E-6;0;Weather
1.00268015;0.0001154;0.0099;197.8254;209.9722;16.6732;0;-2.92E-6;0;Weather
1.00270453;0.0001127;0.0093;194.5172;223.7611;107.4049;0;-2.91E-6;0;Weather
1.00270623;0.0001112;0.0092;192.2119;226.6194;135.2248;0;-2.92E-6;0;Weather
1.00270849;0.0001084;0.0095;187.2861;232.3189;240.0977;0;-2.91E-6;0;Weather
1.00270729;0.0001077;0.0117;173.4304;248.207;135.1304;0;-2.91E-6;0;Weather
1.00270629;0.0001086;0.0128;170.7514;252.1494;243.0959;0;-2.9E-6;0;Weather
1.00270593;0.0001092;0.013;169.8201;253.5939;263.0139;0;-2.9E-6;0;Weather
1.00270426;0.0001078;0.0168;157.6412;267.5245;127.1664;0;-2.9E-6;0;Weather
1.00270383;0.0001067;0.0179;155.3941;270.2368;237.6697;0;-2.9E-6;0;Weather
1.00267777;8.84E-5;0.0185;153.3342;252.7535;283.1317;0;-2.9E-6;0;Weather
1.00273967;0.0001047;0.0214;144.5209;282.2932;109.7355;0;-2.88E-6;0;Weather
1.00273726;0.0001061;0.0228;140.3615;288.4036;248.981;0;-2.88E-6;0;Weather
1.00273586;0.0001032;0.026;130.528;298.2629;110.5403;0;-2.86E-6;0;Weather
1.00273466;0.0001032;0.0273;127.1119;303.0777;238.7423;0;-2.86E-6;0;Weather
1.00273229;0.0001015;0.0323;109.8161;321.8867;110.4592;0;-2.84E-6;0;Weather
1.00273111;0.0001008;0.0342;102.7133;330.0407;232.0107;0;-2.84E-6;0;Weather
1.00272861;9.88E-5;0.0382;78.9277;354.501;111.5285;0;-2.82E-6;0;Weather
1.00272717;9.81E-5;0.0381;94.8857;339.2236;234.4702;0;-2.82E-6;0;Weather
1.00272449;9.61E-5;0.0318;81.2681;353.4043;113.0875;0;-2.8E-6;0;Weather
1.00272302;9.48E-5;0.0464;96.2868;338.928;237.1925;0;-2.79E-6;0;Weather
1.00271843;9.1E-5;0.047;103.0007;332.6977;266.3287;0;-2.76E-6;0;Weather
1.00271843;9.1E-5;0.047;103.0007;332.6977;266.3287;0;-2.76E-6;0;Weather
1.00271585;8.92E-5;0.0513;101.6589;333.6989;117.9757;0;-2.75E-6;0;Weather
1.0027142;8.74E-5;0.0526;102.8987;332.2376;247.7537;0;-2.74E-6;0;Weather
1.00268262;7.77E-5;0.0152;147.6194;286.6661;352.2645;0;-2.74E-6;0;Weather
1.00268172;7.84E-5;0.0152;142.3888;290.0264;123.684;0;-2.74E-6;0;Weather
1.0027095;8.44E-5;0.0543;103.9647;330.4521;251.2857;0;-2.72E-6;0;Weather
1.00270914;8.42E-5;0.0543;103.9851;330.5944;277.0082;0;-2.72E-6;0;Weather
1.00270638;8.33E-5;0.0546;104.2092;330.1315;124.5748;0;-2.72E-6;0;Weather
1.00270489;8.26E-5;0.047;93.9621;339.7029;237.3751;0;-2.71E-6;0;Weather
1.00270313;8.18E-5;0.0552;104.2427;330.2191;357.6722;0;-2.71E-6;0;Weather
1.00269958;8.19E-5;0.0555;104.5906;328.6455;258.055;0;-2.71E-6;0;Weather
1.00269806;8.1E-5;0.0556;104.4036;329.1827;1.3393;0;-2.71E-6;0;Weather
1.00269568;8.19E-5;0.0557;104.4114;328.3203;180.5851;0;-2.72E-6;0;Weather
1.00271021;9.9E-5;0.0191;257.4608;167.4965;116.4109;0;-2.73E-6;0;Weather
1.00270726;0.000102;0.0184;257.0405;168.3437;245.5684;0;-2.74E-6;0;Weather
1.00270445;0.0001023;0.017;256.5018;167.6321;120.0588;0;-2.76E-6;0;Weather
1.00274524;6.89E-5;0.0144;254.1685;165.4245;179.2229;0;-2.79E-6;0;Weather
1.00274081;7.3E-5;0.0125;250.5947;146.3936;282.3837;0;-2.83E-6;0;Weather
1.00273689;7.5E-5;0.0111;248.4609;151.8209;184.8887;0;-2.85E-6;0;Weather
1.00273559;7.68E-5;0.0108;247.0677;155.6814;279.4305;0;-2.86E-6;0;Weather
1.00273445;7.79E-5;0.0103;247.0924;157.176;0.0573;0;-2.87E-6;0;Weather
1.00273271;8.02E-5;0.0096;244.7921;161.3019;166.2793;0;-2.88E-6;0;Weather
1.00273131;8.2E-5;0.0093;243.7985;165.4863;301.6026;0;-2.89E-6;0;Weather
1.00272925;8.57E-5;0.0104;248.239;163.5435;146.4339;0;-2.89E-6;0;Weather
1.0027281;8.72E-5;0.0087;238.9242;175.0649;260.4574;0;-2.9E-6;0;Weather
1.00272541;9.25E-5;0.0105;243.1799;174.8548;194.8146;0;-2.9E-6;0;Weather
1.00272476;9.33E-5;0.0106;242.3996;177.083;271.1006;0;-2.9E-6;0;Weather
1.0027221;9.93E-5;0.014;240.0233;183.7337;240.1185;0;-2.89E-6;0;Weather
1.00272077;0.0001157;0.0185;246.7263;186.2996;237.2618;0;-2.88E-6;0;Weather
1.00269723;0.0001253;0.0129;263.899;174.0679;258.2362;0;-2.89E-6;0;Weather
1.00269652;0.000128;0.0114;267.0498;173.8521;76.6856;0;-2.88E-6;0;Weather
1.00269538;0.0001298;0.0098;270.8348;171.1747;256.9899;0;-2.88E-6;0;Weather
1.00269489;0.0001299;0.009;269.7539;173.8975;358.984;0;-2.87E-6;0;Weather
1.00271741;0.0001295;0.0103;258.6393;184.7428;235.5398;0;-2.86E-6;0;Weather
1.00271464;0.0001277;0.006;215.9118;226.4902;106.6956;0;-2.86E-6;0;Weather
